NORAD_CAT_ID,OBJECT_NAME,OBJECT_TYPE,EPOCH,MEAN_MOTION,ECCENTRICITY,INCLINATION,RA_OF_ASC_NODE,ARG_OF_PERICENTER,MEAN_ANOMALY,BSTAR,MEAN_MOTION_DOT,MEAN_MOTION_DDOT,TLE_LINE0,TLE_LINE1,TLE_LINE2,SEMIMAJOR_AXIS,PERIOD,APOGEE,PERIGEE,DECAYED
55920.0,STARLINK-5862,PAYLOAD,2024-01-17 15:39:00,14.98337152,0.0002873,70.0,96.4507,265.0557,95.0274,1.274e-05,5.9e-07,0.0,0 STARLINK-5862,1 55920U 23037G   24017.65209350  .00000059  00000-0  12740-4 0  9992,2 55920  70.0000  96.4507 0002873 265.0557  95.0274 14.98337152 47170,6950.171,96.107,574.033,570.039,0.0
55920.0,STARLINK-5862,PAYLOAD,2024-01-18 04:28:06,14.98321065,0.000211,70.002,95.1054,257.9905,102.1018,7.7597e-05,8.33e-06,0.0,0 STARLINK-5862,1 55920U 23037G   24018.18618414  .00000833  00000-0  77597-4 0  9997,2 55920  70.0020  95.1054 0002110 257.9905 102.1018 14.98321065 47257,6950.221,96.108,573.552,570.619,0.0
55920.0,STARLINK-5862,PAYLOAD,2024-01-18 14:04:55,14.98315233,0.000245,70.0009,94.0939,264.0934,95.9946,-1.5624e-05,-2.79e-06,0.0,0 STARLINK-5862,1 55920U 23037G   24018.58675226 -.00000279  00000-0 -15624-4 0  9994,2 55920  70.0009  94.0939 0002450 264.0934  95.9946 14.98315233 46979,6950.239,96.108,573.806,570.401,0.0
55920.0,STARLINK-5862,PAYLOAD,2024-01-19 04:30:06,14.98338416,0.0002851,70.0002,92.5791,268.7939,91.2893,3.4697e-05,3.21e-06,0.0,0 STARLINK-5862,1 55920U 23037G   24019.18757662  .00000321  00000-0  34697-4 0  9993,2 55920  70.0002  92.5791 0002851 268.7939  91.2893 14.98338416 47409,6950.167,96.106,574.013,570.05,0.0
55920.0,STARLINK-5862,PAYLOAD,2024-01-19 14:06:54,14.98344705,0.0003044,69.9995,91.5681,270.202,89.8791,0.00013075,1.468e-05,0.0,0 STARLINK-5862,1 55920U 23037G   24019.58812726  .00001468  00000-0  13075-3 0  9999,2 55920  69.9995  91.5681 0003044 270.2020  89.8791 14.98344705 47125,6950.147,96.106,574.128,569.897,0.0
55920.0,STARLINK-5862,PAYLOAD,2024-01-20 10:56:40,14.9832578,0.0003362,69.9986,89.3785,271.3724,88.705,1.5952e-05,9.7e-07,0.0,0 STARLINK-5862,1 55920U 23037G   24020.45602139  .00000097  00000-0  15952-4 0  9996,2 55920  69.9986  89.3785 0003362 271.3724  88.7050 14.98325780 47590,6950.206,96.107,574.408,569.734,0.0
55920.0,STARLINK-5862,PAYLOAD,2024-01-20 14:08:56,14.98327884,0.0003019,69.9994,89.0424,271.4645,88.6168,5.9647e-05,6.19e-06,0.0,0 STARLINK-5862,1 55920U 23037G   24020.58953951  .00000619  00000-0  59647-4 0  9990,2 55920  69.9994  89.0424 0003019 271.4645  88.6168 14.98327884 47279,6950.199,96.107,574.163,569.966,0.0
55920.0,STARLINK-5862,PAYLOAD,2024-01-21 06:10:16,14.98336477,0.0002999,69.9995,87.3601,268.822,91.2596,-9.3737e-05,-1.211e-05,0.0,0 STARLINK-5862,1 55920U 23037G   24021.25713710 -.00001211  00000-0 -93737-4 0  9991,2 55920  69.9995  87.3601 0002999 268.8220  91.2596 14.98336477 47377,6950.173,96.107,574.122,569.954,0.0
55920.0,STARLINK-5862,PAYLOAD,2024-01-21 12:34:48,14.98340532,0.0002817,69.9995,86.6855,266.2172,93.8665,-7.4468e-05,-9.82e-06,0.0,0 STARLINK-5862,1 55920U 23037G   24021.52417267 -.00000982  00000-0 -74468-4 0  9993,2 55920  69.9995  86.6855 0002817 266.2172  93.8665 14.98340532 47751,6950.16,96.106,573.983,570.067,0.0
55920.0,STARLINK-5862,PAYLOAD,2024-01-21 14:10:56,14.98340576,0.0002853,69.9995,86.5175,266.8518,93.2315,-4.2011e-05,-5.94e-06,0.0,0 STARLINK-5862,1 55920U 23037G   24021.59093141 -.00000594  00000-0 -42011-4 0  9999,2 55920  69.9995  86.5175 0002853 266.8518  93.2315 14.98340576 47423,6950.16,96.106,574.008,570.042,0.0
55920.0,STARLINK-5862,PAYLOAD,2024-01-22 06:12:17,14.98327486,0.000272,70.0001,84.8365,258.2791,101.8063,9.9174e-06,2.5e-07,0.0,0 STARLINK-5862,1 55920U 23037G   24022.25853677  .00000025  00000-0  99174-5 0  9991,2 55920  70.0001  84.8365 0002720 258.2791 101.8063 14.98327486 47529,6950.201,96.107,573.956,570.175,0.0
55920.0,STARLINK-5862,PAYLOAD,2024-01-22 11:00:41,14.98327691,0.0002711,70.0002,84.3315,258.2515,101.834,1.2248e-05,5.3e-07,0.0,0 STARLINK-5862,1 55920U 23037G   24022.45881681  .00000053  00000-0  12248-4 0  9996,2 55920  70.0002  84.3315 0002711 258.2515 101.8340 14.98327691 47890,6950.2,96.107,573.949,570.181,0.0
55920.0,STARLINK-5862,PAYLOAD,2024-01-22 14:12:57,14.9832876,0.0002701,70.0002,83.9951,257.8258,102.2598,2.2722e-05,1.78e-06,0.0,0 STARLINK-5862,1 55920U 23037G   24022.59233591  .00000178  00000-0  22722-4 0  9998,2 55920  70.0002  83.9951 0002701 257.8258 102.2598 14.98328760 47572,6950.197,96.107,573.939,570.184,0.0
55920.0,STARLINK-5862,PAYLOAD,2024-01-23 06:14:18,14.98333301,0.0002642,70.0002,82.3114,259.6801,100.4061,7.6843e-06,-1e-08,0.0,0 STARLINK-5862,1 55920U 23037G   24023.25993297 -.00000001  00000-0  76843-5 0  9998,2 55920  70.0002  82.3114 0002642 259.6801 100.4061 14.98333301 47677,6950.183,96.107,573.884,570.211,0.0
55920.0,STARLINK-5862,PAYLOAD,2024-01-23 11:02:42,14.98333906,0.0002614,70.0002,81.8064,260.1795,99.9069,1.7424e-05,1.15e-06,0.0,0 STARLINK-5862,1 55920U 23037G   24023.46021193  .00000115  00000-0  17424-4 0  9992,2 55920  70.0002  81.8064 0002614 260.1795  99.9069 14.98333906 48046,6950.181,96.107,573.863,570.229,0.0
55920.0,STARLINK-5862,PAYLOAD,2024-01-23 14:14:58,14.98334995,0.0002608,70.0002,81.47,260.1978,99.8886,2.8999e-05,2.53e-06,0.0,0 STARLINK-5862,1 55920U 23037G   24023.59373057  .00000253  00000-0  28999-4 0  9997,2 55920  70.0002  81.4700 0002608 260.1978  99.8886 14.98334995 47724,6950.177,96.107,573.855,570.23,0.0
55920.0,STARLINK-5862,PAYLOAD,2024-01-24 11:04:44,14.98322763,0.0002587,70.0005,79.2826,249.3127,110.7754,-4.7728e-05,-6.62e-06,0.0,0 STARLINK-5862,1 55920U 23037G   24024.46162046 -.00000662  00000-0 -47728-4 0  9995,2 55920  70.0005  79.2826 0002587 249.3127 110.7754 14.98322763 48191,6950.215,96.107,573.878,570.282,0.0
55920.0,STARLINK-5862,PAYLOAD,2024-01-24 12:40:52,14.98322493,0.0002581,70.0005,79.1142,250.1269,109.9612,-5.052e-05,-6.96e-06,0.0,0 STARLINK-5862,1 55920U 23037G   24024.52838103 -.00000696  00000-0 -50520-4 0  9997,2 55920  70.0005  79.1142 0002581 250.1269 109.9612 14.98322493 47868,6950.216,96.107,573.875,570.287,0.0
55920.0,STARLINK-5862,PAYLOAD,2024-01-25 11:06:44,14.98332931,0.0002784,69.9997,76.7567,257.836,102.2487,-9.3698e-06,-2.05e-06,0.0,0 STARLINK-5862,1 55920U 23037G   24025.46301372 -.00000205  00000-0 -93698-5 0  9994,2 55920  69.9997  76.7567 0002784 257.8360 102.2487 14.98332931 48348,6950.184,96.107,573.984,570.114,0.0
55920.0,STARLINK-5862,PAYLOAD,2024-01-25 12:42:52,14.98341639,0.0002605,70.0001,76.5896,243.2826,116.8067,-0.00017982,-2.238e-05,0.0,0 STARLINK-5862,1 55920U 23037G   24025.52977201 -.00002238  00000-0 -17982-3 0  9999,2 55920  70.0001  76.5896 0002605 243.2826 116.8067 14.98341639 48012,6950.157,96.106,573.832,570.211,0.0
55920.0,STARLINK-5862,PAYLOAD,2024-01-26 11:08:45,14.98327588,0.0002734,69.9997,74.2312,254.3388,105.7469,6.6281e-05,6.98e-06,0.0,0 STARLINK-5862,1 55920U 23037G   24026.46441522  .00000698  00000-0  66281-4 0  9998,2 55920  69.9997  74.2312 0002734 254.3388 105.7469 14.98327588 48492,6950.2,96.107,573.966,570.165,0.0
55920.0,STARLINK-5862,PAYLOAD,2024-01-26 12:44:53,14.98327911,0.0002732,69.9997,74.0629,254.4195,105.6662,6.7782e-05,7.16e-06,0.0,0 STARLINK-5862,1 55920U 23037G   24026.53117503  .00000716  00000-0  67782-4 0  9993,2 55920  69.9997  74.0629 0002732 254.4195 105.6662 14.98327911 48164,6950.199,96.107,573.963,570.166,0.0
55920.0,STARLINK-5862,PAYLOAD,2024-01-27 12:46:54,14.98327705,0.0002681,69.9997,71.5375,258.3783,101.7075,-2.5045e-05,-3.92e-06,0.0,0 STARLINK-5862,1 55920U 23037G   24027.53257826 -.00000392  00000-0 -25045-4 0  9995,2 55920  69.9997  71.5375 0002681 258.3783 101.7075 14.98327705 48653,6950.2,96.107,573.928,570.202,0.0
55920.0,STARLINK-5862,PAYLOAD,2024-01-28 12:48:55,14.98332038,0.0002779,69.9995,69.0117,263.0601,97.0242,5.3431e-06,-2.9e-07,0.0,0 STARLINK-5862,1 55920U 23037G   24028.53397414 -.00000029  00000-0  53431-5 0  9991,2 55920  69.9995  69.0117 0002779 263.0601  97.0242 14.98332038 48464,6950.187,96.107,573.983,570.12,0.0
55920.0,STARLINK-5862,PAYLOAD,2024-01-29 11:14:47,14.98333814,0.000278,69.9995,66.6549,267.2761,92.8079,5.7457e-05,5.93e-06,0.0,0 STARLINK-5862,1 55920U 23037G   24029.46861027  .00000593  00000-0  57457-4 0  9996,2 55920  69.9995  66.6549 0002780 267.2761  92.8079 14.98333814 48601,6950.181,96.107,573.978,570.114,0.0
55920.0,STARLINK-5862,PAYLOAD,2024-01-30 04:52:17,14.98327572,0.0002629,69.9998,64.8034,264.2777,95.8082,-2.735e-05,-4.19e-06,0.0,0 STARLINK-5862,1 55920U 23037G   24030.20297594 -.00000419  00000-0 -27350-4 0  9990,2 55920  69.9998  64.8034 0002629 264.2777  95.8082 14.98327572 49050,6950.2,96.107,573.893,570.238,0.0
55920.0,STARLINK-5862,PAYLOAD,2024-01-30 12:52:57,14.98325399,0.0002669,69.9997,63.9617,263.713,96.3725,-5.107e-05,-7.02e-06,0.0,0 STARLINK-5862,1 55920U 23037G   24030.53677848 -.00000702  00000-0 -51070-4 0  9991,2 55920  69.9997  63.9617 0002669 263.7130  96.3725 14.98325399 48769,6950.207,96.107,573.927,570.217,0.0
55920.0,STARLINK-5862,PAYLOAD,2024-01-31 11:18:49,14.98333286,0.0002856,69.9992,61.6045,269.2644,90.8188,-9.8657e-06,-2.11e-06,0.0,0 STARLINK-5862,1 55920U 23037G   24031.47141155 -.00000211  00000-0 -98657-5 0  9990,2 55920  69.9992  61.6045 0002856 269.2644  90.8188 14.98333286 49243,6950.183,96.107,574.033,570.063,0.0
55920.0,STARLINK-5862,PAYLOAD,2024-01-31 12:54:57,14.98333718,0.0002865,69.9992,61.436,269.0338,91.0493,-6.0186e-06,-1.65e-06,0.0,0 STARLINK-5862,1 55920U 23037G   24031.53817099 -.00000165  00000-0 -60186-5 0  9998,2 55920  69.9992  61.4360 0002865 269.0338  91.0493 14.98333718 48914,6950.181,96.107,574.038,570.055,0.0
55920.0,STARLINK-5862,PAYLOAD,2024-02-01 03:20:11,14.98322676,0.0002835,69.9993,59.9207,268.1945,91.8889,4.4183e-07,-8.8e-07,0.0,0 STARLINK-5862,1 55920U 23037G   24032.13901819 -.00000088  00000-0  44183-6 0  9992,2 55920  69.9993  59.9207 0002835 268.1945  91.8889 14.98322676 49344,6950.216,96.107,574.051,570.11,0.0
